[
    {
        "Altitude(m)": 571440.740490592,
        "Argument of Periapsis(deg)": 0.026491964442854003,
        "Eccentricity": 0.0,
        "Inclination(deg)": 53.0,
        "Latitude(deg)": -52.10336286851505,
        "Longitude(deg)": 11.141786270501347,
        "Mean Anomaly(deg)": -99.63352852968966,
        "RAAN(deg)": 219.96057347411207,
        "Satellite Name": "Starlink Shell 1 981",
        "Satellite Number": 981,
        "Semi-Major Axis(m)": 6931778.249405717,
        "Time(s)": 760
    },
    {
        "Altitude(m)": 571491.499239574,
        "Argument of Periapsis(deg)": 0.02684054292236524,
        "Eccentricity": 0.0,
        "Inclination(deg)": 53.0,
        "Latitude(deg)": -52.23402614701355,
        "Longitude(deg)": 12.093812889068092,
        "Mean Anomaly(deg)": -99.00669732613291,
        "RAAN(deg)": 219.9600547040346,
        "Satellite Name": "Starlink Shell 1 981",
        "Satellite Number": 981,
        "Semi-Major Axis(m)": 6931778.249405717,
        "Time(s)": 770
    },
    {
        "Altitude(m)": 571538.9181341965,
        "Argument of Periapsis(deg)": 0.027189121401876473,
        "Eccentricity": 0.0,
        "Inclination(deg)": 53.0,
        "Latitude(deg)": -52.35628332674975,
        "Longitude(deg)": 13.051490533943413,
        "Mean Anomaly(deg)": -98.37986612257616,
        "RAAN(deg)": 219.9595359339571,
        "Satellite Name": "Starlink Shell 1 981",
        "Satellite Number": 981,
        "Semi-Major Axis(m)": 6931778.249405717,
        "Time(s)": 780
    },
    {
        "Altitude(m)": 571582.978243549,
        "Argument of Periapsis(deg)": 0.02753769988138771,
        "Eccentricity": 0.0,
        "Inclination(deg)": 53.0,
        "Latitude(deg)": -52.47005156596369,
        "Longitude(deg)": 14.014494664465943,
        "Mean Anomaly(deg)": -97.75303491901948,
        "RAAN(deg)": 219.95901716387962,
        "Satellite Name": "Starlink Shell 1 981",
        "Satellite Number": 981,
        "Semi-Major Axis(m)": 6931778.249405717,
        "Time(s)": 790
    },
    {
        "Altitude(m)": 571623.6619734756,
        "Argument of Periapsis(deg)": 0.02788627836089895,
        "Eccentricity": 0.0,
        "Inclination(deg)": 53.0,
        "Latitude(deg)": -52.57525280993275,
        "Longitude(deg)": 14.982486214878136,
        "Mean Anomaly(deg)": -97.12620371546274,
        "RAAN(deg)": 219.95849839380216,
        "Satellite Name": "Starlink Shell 1 981",
        "Satellite Number": 981,
        "Semi-Major Axis(m)": 6931778.249405717,
        "Time(s)": 800
    },
    {
        "Altitude(m)": 571660.9530741606,
        "Argument of Periapsis(deg)": 0.02823485684041019,
        "Eccentricity": 0.0,
        "Inclination(deg)": 53.0,
        "Latitude(deg)": -52.67181404099593,
        "Longitude(deg)": 15.95511274593218,
        "Mean Anomaly(deg)": -96.49937251190607,
        "RAAN(deg)": 219.95797962372473,
        "Satellite Name": "Starlink Shell 1 981",
        "Satellite Number": 981,
        "Semi-Major Axis(m)": 6931778.249405717,
        "Time(s)": 810
    },
    {
        "Altitude(m)": 571694.8366471656,
        "Argument of Periapsis(deg)": 0.028583435319921423,
        "Eccentricity": 0.0,
        "Inclination(deg)": 53.0,
        "Latitude(deg)": -52.759667517295554,
        "Longitude(deg)": 16.93200968034968,
        "Mean Anomaly(deg)": -95.87254130834928,
        "RAAN(deg)": 219.9574608536472,
        "Satellite Name": "Starlink Shell 1 981",
        "Satellite Number": 981,
        "Semi-Major Axis(m)": 6931778.249405717,
        "Time(s)": 820
    },
    {
        "Altitude(m)": 571725.2991518861,
        "Argument of Periapsis(deg)": 0.028932013799432665,
        "Eccentricity": 0.0,
        "Inclination(deg)": 53.0,
        "Latitude(deg)": -52.83875099842092,
        "Longitude(deg)": 17.912800106201015,
        "Mean Anomaly(deg)": -95.24571010479265,
        "RAAN(deg)": 219.95694208356977,
        "Satellite Name": "Starlink Shell 1 981",
        "Satellite Number": 981,
        "Semi-Major Axis(m)": 6931778.249405717,
        "Time(s)": 830
    },
    {
        "Altitude(m)": 571752.3284114122,
        "Argument of Periapsis(deg)": 0.029280592278943897,
        "Eccentricity": 0.0,
        "Inclination(deg)": 53.0,
        "Latitude(deg)": -52.90900795627328,
        "Longitude(deg)": 18.89709617071331,
        "Mean Anomaly(deg)": -94.618878901236,
        "RAAN(deg)": 219.9564233134923,
        "Satellite Name": "Starlink Shell 1 981",
        "Satellite Number": 981,
        "Semi-Major Axis(m)": 6931778.249405717,
        "Time(s)": 840
    },
    {
        "Altitude(m)": 571775.9136178028,
        "Argument of Periapsis(deg)": 0.029629170758455132,
        "Eccentricity": 0.0,
        "Inclination(deg)": 53.0,
        "Latitude(deg)": -52.970387769535364,
        "Longitude(deg)": 19.88450054737033,
        "Mean Anomaly(deg)": -93.99204769767924,
        "RAAN(deg)": 219.95590454341482,
        "Satellite Name": "Starlink Shell 1 981",
        "Satellite Number": 981,
        "Semi-Major Axis(m)": 6931778.249405717,
        "Time(s)": 850
    },
    {
        "Altitude(m)": 571796.0453367487,
        "Argument of Periapsis(deg)": 0.02997774923796637,
        "Eccentricity": 0.0,
        "Inclination(deg)": 53.0,
        "Latitude(deg)": -53.022845900222094,
        "Longitude(deg)": 20.874606290191494,
        "Mean Anomaly(deg)": -93.36521649412245,
        "RAAN(deg)": 219.95538577333735,
        "Satellite Name": "Starlink Shell 1 981",
        "Satellite Number": 981,
        "Semi-Major Axis(m)": 6931778.249405717,
        "Time(s)": 860
    },
    {
        "Altitude(m)": 571812.7155116769,
        "Argument of Periapsis(deg)": 0.030326327717477602,
        "Eccentricity": 0.0,
        "Inclination(deg)": 53.0,
        "Latitude(deg)": -53.06634405089114,
        "Longitude(deg)": 21.866999271622134,
        "Mean Anomaly(deg)": -92.73838529056583,
        "RAAN(deg)": 219.9548670032599,
        "Satellite Name": "Starlink Shell 1 981",
        "Satellite Number": 981,
        "Semi-Major Axis(m)": 6931778.249405717,
        "Time(s)": 870
    },
    {
        "Altitude(m)": 571825.9174672153,
        "Argument of Periapsis(deg)": 0.030674906196988847,
        "Eccentricity": 0.0,
        "Inclination(deg)": 53.0,
        "Latitude(deg)": -53.10085030124197,
        "Longitude(deg)": 22.861258154342153,
        "Mean Anomaly(deg)": -92.11155408700904,
        "RAAN(deg)": 219.9543482331824,
        "Satellite Name": "Starlink Shell 1 981",
        "Satellite Number": 981,
        "Semi-Major Axis(m)": 6931778.249405717,
        "Time(s)": 880
    },
    {
        "Altitude(m)": 571835.6459120971,
        "Argument of Periapsis(deg)": 0.031023484676500086,
        "Eccentricity": 0.0,
        "Inclination(deg)": 53.0,
        "Latitude(deg)": -53.12633922296633,
        "Longitude(deg)": 23.8569560919153,
        "Mean Anomaly(deg)": -91.4847228834524,
        "RAAN(deg)": 219.9538294631049,
        "Satellite Name": "Starlink Shell 1 981",
        "Satellite Number": 981,
        "Semi-Major Axis(m)": 6931778.249405717,
        "Time(s)": 890
    },
    {
        "Altitude(m)": 571841.8969414408,
        "Argument of Periapsis(deg)": 0.03137206315601132,
        "Eccentricity": 0.0,
        "Inclination(deg)": 53.0,
        "Latitude(deg)": -53.14279197189227,
        "Longitude(deg)": 24.853662469180563,
        "Mean Anomaly(deg)": -90.85789167989566,
        "RAAN(deg)": 219.95331069302745,
        "Satellite Name": "Starlink Shell 1 981",
        "Satellite Number": 981,
        "Semi-Major Axis(m)": 6931778.249405717,
        "Time(s)": 900
    },
    {
        "Altitude(m)": 571844.6680384552,
        "Argument of Periapsis(deg)": 0.03172064163552255,
        "Eccentricity": 0.0,
        "Inclination(deg)": 53.0,
        "Latitude(deg)": -53.150196356645644,
        "Longitude(deg)": 25.85094316084418,
        "Mean Anomaly(deg)": -90.23106047633895,
        "RAAN(deg)": 219.95279192294996,
        "Satellite Name": "Starlink Shell 1 981",
        "Satellite Number": 981,
        "Semi-Major Axis(m)": 6931778.249405717,
        "Time(s)": 910
    },
    {
        "Altitude(m)": 571843.9580755159,
        "Argument of Periapsis(deg)": 0.0320692201150338,
        "Eccentricity": 0.0,
        "Inclination(deg)": 53.0,
        "Latitude(deg)": -53.148546883238275,
        "Longitude(deg)": 26.848362324939693,
        "Mean Anomaly(deg)": -89.60422927278222,
        "RAAN(deg)": 219.9522731528725,
        "Satellite Name": "Starlink Shell 1 981",
        "Satellite Number": 981,
        "Semi-Major Axis(m)": 6931778.249405717,
        "Time(s)": 920
    },
    {
        "Altitude(m)": 571839.7673146623,
        "Argument of Periapsis(deg)": 0.032417798594545036,
        "Eccentricity": 0.0,
        "Inclination(deg)": 53.0,
        "Latitude(deg)": -53.1378447752044,
        "Longitude(deg)": 27.845484208893534,
        "Mean Anomaly(deg)": -88.97739806922546,
        "RAAN(deg)": 219.95175438279506,
        "Satellite Name": "Starlink Shell 1 981",
        "Satellite Number": 981,
        "Semi-Major Axis(m)": 6931778.249405717,
        "Time(s)": 930
    },
    {
        "Altitude(m)": 571832.0974074851,
        "Argument of Periapsis(deg)": 0.03276637707405627,
        "Eccentricity": 0.0,
        "Inclination(deg)": 53.0,
        "Latitude(deg)": -53.11809796911484,
        "Longitude(deg)": 28.841873445772702,
        "Mean Anomaly(deg)": -88.3505668656688,
        "RAAN(deg)": 219.95123561271754,
        "Satellite Name": "Starlink Shell 1 981",
        "Satellite Number": 981,
        "Semi-Major Axis(m)": 6931778.249405717,
        "Time(s)": 940
    }
]